{
    "type": "FeatureCollection",
    "features": [
        {
            "type": "Feature",
            "id": "capital_0",
            "geometry": {
                "type": "Point",
                "coordinates": [
                    69.183333,
                    34.516667
                ]
            },
            "properties": {
                "location_id": "0",
                "name": "Kabul",
                "province": "Kabul",
                "color": "#ff0096",
                "layer": "capital",
                "layer_order": 3,
                "marker_type": "star",
                "marker_size": 24,
                "opacity": 0.9,
                "is_national_capital": true
            }
        },
        {
            "type": "Feature",
            "id": "capital_1",
            "geometry": {
                "type": "Point",
                "coordinates": [
                    70.58,
                    37.1166
                ]
            },
            "properties": {
                "location_id": "1",
                "name": "Fayzabad",
                "province": "Badakhshan",
                "color": "#f26168",
                "layer": "capital",
                "layer_order": 3,
                "marker_type": "star",
                "marker_size": 16,
                "opacity": 0.9,
                "is_national_capital": false
            }
        },
        {
            "type": "Feature",
            "id": "capital_2",
            "geometry": {
                "type": "Point",
                "coordinates": [
                    63.1333,
                    34.9833
                ]
            },
            "properties": {
                "location_id": "2",
                "name": "Qala-e-Naw",
                "province": "Badghis",
                "color": "#f26168",
                "layer": "capital",
                "layer_order": 3,
                "marker_type": "star",
                "marker_size": 16,
                "opacity": 0.9,
                "is_national_capital": false
            }
        },
        {
            "type": "Feature",
            "id": "capital_3",
            "geometry": {
                "type": "Point",
                "coordinates": [
                    68.7,
                    35.95
                ]
            },
            "properties": {
                "location_id": "3",
                "name": "Puli Khumri",
                "province": "Baghlan",
                "color": "#f26168",
                "layer": "capital",
                "layer_order": 3,
                "marker_type": "star",
                "marker_size": 16,
                "opacity": 0.9,
                "is_national_capital": false
            }
        },
        {
            "type": "Feature",
            "id": "capital_4",
            "geometry": {
                "type": "Point",
                "coordinates": [
                    67.1109,
                    36.709
                ]
            },
            "properties": {
                "location_id": "4",
                "name": "Mazar-e-Sharif",
                "province": "Balkh",
                "color": "#f26168",
                "layer": "capital",
                "layer_order": 3,
                "marker_type": "star",
                "marker_size": 16,
                "opacity": 0.9,
                "is_national_capital": false
            }
        },
        {
            "type": "Feature",
            "id": "capital_5",
            "geometry": {
                "type": "Point",
                "coordinates": [
                    67.8273,
                    34.8216
                ]
            },
            "properties": {
                "location_id": "5",
                "name": "Bamyan",
                "province": "Bamyan",
                "color": "#f26168",
                "layer": "capital",
                "layer_order": 3,
                "marker_type": "star",
                "marker_size": 16,
                "opacity": 0.9,
                "is_national_capital": false
            }
        },
        {
            "type": "Feature",
            "id": "capital_6",
            "geometry": {
                "type": "Point",
                "coordinates": [
                    66.0767,
                    33.7633
                ]
            },
            "properties": {
                "location_id": "6",
                "name": "Nili",
                "province": "Daykundi",
                "color": "#f26168",
                "layer": "capital",
                "layer_order": 3,
                "marker_type": "star",
                "marker_size": 16,
                "opacity": 0.9,
                "is_national_capital": false
            }
        },
        {
            "type": "Feature",
            "id": "capital_7",
            "geometry": {
                "type": "Point",
                "coordinates": [
                    62.1164,
                    32.3745
                ]
            },
            "properties": {
                "location_id": "7",
                "name": "Farah",
                "province": "Farah",
                "color": "#f26168",
                "layer": "capital",
                "layer_order": 3,
                "marker_type": "star",
                "marker_size": 16,
                "opacity": 0.9,
                "is_national_capital": false
            }
        },
        {
            "type": "Feature",
            "id": "capital_8",
            "geometry": {
                "type": "Point",
                "coordinates": [
                    64.7836,
                    35.9214
                ]
            },
            "properties": {
                "location_id": "8",
                "name": "Maymana",
                "province": "Faryab",
                "color": "#f26168",
                "layer": "capital",
                "layer_order": 3,
                "marker_type": "star",
                "marker_size": 16,
                "opacity": 0.9,
                "is_national_capital": false
            }
        },
        {
            "type": "Feature",
            "id": "capital_9",
            "geometry": {
                "type": "Point",
                "coordinates": [
                    68.4264,
                    33.5539
                ]
            },
            "properties": {
                "location_id": "9",
                "name": "Ghazni",
                "province": "Ghazni",
                "color": "#f26168",
                "layer": "capital",
                "layer_order": 3,
                "marker_type": "star",
                "marker_size": 16,
                "opacity": 0.9,
                "is_national_capital": false
            }
        },
        {
            "type": "Feature",
            "id": "capital_10",
            "geometry": {
                "type": "Point",
                "coordinates": [
                    65.25,
                    34.5167
                ]
            },
            "properties": {
                "location_id": "10",
                "name": "Firoz Koh (Chaghcharan)",
                "province": "Ghor",
                "color": "#f26168",
                "layer": "capital",
                "layer_order": 3,
                "marker_type": "star",
                "marker_size": 16,
                "opacity": 0.9,
                "is_national_capital": false
            }
        },
        {
            "type": "Feature",
            "id": "capital_11",
            "geometry": {
                "type": "Point",
                "coordinates": [
                    64.36,
                    31.583
                ]
            },
            "properties": {
                "location_id": "11",
                "name": "Lashkar Gah",
                "province": "Helmand",
                "color": "#f26168",
                "layer": "capital",
                "layer_order": 3,
                "marker_type": "star",
                "marker_size": 16,
                "opacity": 0.9,
                "is_national_capital": false
            }
        },
        {
            "type": "Feature",
            "id": "capital_12",
            "geometry": {
                "type": "Point",
                "coordinates": [
                    62.2167,
                    34.35
                ]
            },
            "properties": {
                "location_id": "12",
                "name": "Herat",
                "province": "Herat",
                "color": "#f26168",
                "layer": "capital",
                "layer_order": 3,
                "marker_type": "star",
                "marker_size": 16,
                "opacity": 0.9,
                "is_national_capital": false
            }
        },
        {
            "type": "Feature",
            "id": "capital_13",
            "geometry": {
                "type": "Point",
                "coordinates": [
                    65.7529,
                    36.6572
                ]
            },
            "properties": {
                "location_id": "13",
                "name": "Sheberghan",
                "province": "Jowzjan",
                "color": "#f26168",
                "layer": "capital",
                "layer_order": 3,
                "marker_type": "star",
                "marker_size": 16,
                "opacity": 0.9,
                "is_national_capital": false
            }
        },
        {
            "type": "Feature",
            "id": "capital_14",
            "geometry": {
                "type": "Point",
                "coordinates": [
                    65.7372,
                    31.6289
                ]
            },
            "properties": {
                "location_id": "14",
                "name": "Kandahar",
                "province": "Kandahar",
                "color": "#f26168",
                "layer": "capital",
                "layer_order": 3,
                "marker_type": "star",
                "marker_size": 16,
                "opacity": 0.9,
                "is_national_capital": false
            }
        },
        {
            "type": "Feature",
            "id": "capital_15",
            "geometry": {
                "type": "Point",
                "coordinates": [
                    69.3333,
                    35.0167
                ]
            },
            "properties": {
                "location_id": "15",
                "name": "Mahmood-e-Raqi",
                "province": "Kapisa",
                "color": "#f26168",
                "layer": "capital",
                "layer_order": 3,
                "marker_type": "star",
                "marker_size": 16,
                "opacity": 0.9,
                "is_national_capital": false
            }
        },
        {
            "type": "Feature",
            "id": "capital_16",
            "geometry": {
                "type": "Point",
                "coordinates": [
                    69.9204,
                    33.3395
                ]
            },
            "properties": {
                "location_id": "16",
                "name": "Khost",
                "province": "Khost",
                "color": "#f26168",
                "layer": "capital",
                "layer_order": 3,
                "marker_type": "star",
                "marker_size": 16,
                "opacity": 0.9,
                "is_national_capital": false
            }
        },
        {
            "type": "Feature",
            "id": "capital_17",
            "geometry": {
                "type": "Point",
                "coordinates": [
                    71.1509,
                    34.8723
                ]
            },
            "properties": {
                "location_id": "17",
                "name": "Asadabad",
                "province": "Kunar",
                "color": "#f26168",
                "layer": "capital",
                "layer_order": 3,
                "marker_type": "star",
                "marker_size": 16,
                "opacity": 0.9,
                "is_national_capital": false
            }
        },
        {
            "type": "Feature",
            "id": "capital_18",
            "geometry": {
                "type": "Point",
                "coordinates": [
                    68.868,
                    36.728
                ]
            },
            "properties": {
                "location_id": "18",
                "name": "Kunduz",
                "province": "Kunduz",
                "color": "#f26168",
                "layer": "capital",
                "layer_order": 3,
                "marker_type": "star",
                "marker_size": 16,
                "opacity": 0.9,
                "is_national_capital": false
            }
        },
        {
            "type": "Feature",
            "id": "capital_19",
            "geometry": {
                "type": "Point",
                "coordinates": [
                    70.2089,
                    34.6497
                ]
            },
            "properties": {
                "location_id": "19",
                "name": "Mehtar Lam",
                "province": "Laghman",
                "color": "#f26168",
                "layer": "capital",
                "layer_order": 3,
                "marker_type": "star",
                "marker_size": 16,
                "opacity": 0.9,
                "is_national_capital": false
            }
        },
        {
            "type": "Feature",
            "id": "capital_20",
            "geometry": {
                "type": "Point",
                "coordinates": [
                    69.0227,
                    33.995
                ]
            },
            "properties": {
                "location_id": "20",
                "name": "Pul-e-Alam",
                "province": "Logar",
                "color": "#f26168",
                "layer": "capital",
                "layer_order": 3,
                "marker_type": "star",
                "marker_size": 16,
                "opacity": 0.9,
                "is_national_capital": false
            }
        },
        {
            "type": "Feature",
            "id": "capital_21",
            "geometry": {
                "type": "Point",
                "coordinates": [
                    70.4477,
                    34.434
                ]
            },
            "properties": {
                "location_id": "21",
                "name": "Jalalabad",
                "province": "Nangarhar",
                "color": "#f26168",
                "layer": "capital",
                "layer_order": 3,
                "marker_type": "star",
                "marker_size": 16,
                "opacity": 0.9,
                "is_national_capital": false
            }
        },
        {
            "type": "Feature",
            "id": "capital_22",
            "geometry": {
                "type": "Point",
                "coordinates": [
                    61.8604,
                    30.9596
                ]
            },
            "properties": {
                "location_id": "22",
                "name": "Zaranj",
                "province": "Nimroz",
                "color": "#f26168",
                "layer": "capital",
                "layer_order": 3,
                "marker_type": "star",
                "marker_size": 16,
                "opacity": 0.9,
                "is_national_capital": false
            }
        },
        {
            "type": "Feature",
            "id": "capital_23",
            "geometry": {
                "type": "Point",
                "coordinates": [
                    70.9229,
                    35.4206
                ]
            },
            "properties": {
                "location_id": "23",
                "name": "Parun",
                "province": "Nuristan",
                "color": "#f26168",
                "layer": "capital",
                "layer_order": 3,
                "marker_type": "star",
                "marker_size": 16,
                "opacity": 0.9,
                "is_national_capital": false
            }
        },
        {
            "type": "Feature",
            "id": "capital_24",
            "geometry": {
                "type": "Point",
                "coordinates": [
                    69.2259,
                    33.5992
                ]
            },
            "properties": {
                "location_id": "24",
                "name": "Gardez",
                "province": "Paktia",
                "color": "#f26168",
                "layer": "capital",
                "layer_order": 3,
                "marker_type": "star",
                "marker_size": 16,
                "opacity": 0.9,
                "is_national_capital": false
            }
        },
        {
            "type": "Feature",
            "id": "capital_25",
            "geometry": {
                "type": "Point",
                "coordinates": [
                    68.6333,
                    32.2
                ]
            },
            "properties": {
                "location_id": "25",
                "name": "Sharana",
                "province": "Paktika",
                "color": "#f26168",
                "layer": "capital",
                "layer_order": 3,
                "marker_type": "star",
                "marker_size": 16,
                "opacity": 0.9,
                "is_national_capital": false
            }
        },
        {
            "type": "Feature",
            "id": "capital_26",
            "geometry": {
                "type": "Point",
                "coordinates": [
                    69.5152,
                    35.3129
                ]
            },
            "properties": {
                "location_id": "26",
                "name": "Bazarak",
                "province": "Panjshir",
                "color": "#f26168",
                "layer": "capital",
                "layer_order": 3,
                "marker_type": "star",
                "marker_size": 16,
                "opacity": 0.9,
                "is_national_capital": false
            }
        },
        {
            "type": "Feature",
            "id": "capital_27",
            "geometry": {
                "type": "Point",
                "coordinates": [
                    69.1714,
                    35.0136
                ]
            },
            "properties": {
                "location_id": "27",
                "name": "Charikar",
                "province": "Parwan",
                "color": "#f26168",
                "layer": "capital",
                "layer_order": 3,
                "marker_type": "star",
                "marker_size": 16,
                "opacity": 0.9,
                "is_national_capital": false
            }
        },
        {
            "type": "Feature",
            "id": "capital_28",
            "geometry": {
                "type": "Point",
                "coordinates": [
                    68.0167,
                    36.2647
                ]
            },
            "properties": {
                "location_id": "28",
                "name": "Aibak",
                "province": "Samangan",
                "color": "#f26168",
                "layer": "capital",
                "layer_order": 3,
                "marker_type": "star",
                "marker_size": 16,
                "opacity": 0.9,
                "is_national_capital": false
            }
        },
        {
            "type": "Feature",
            "id": "capital_29",
            "geometry": {
                "type": "Point",
                "coordinates": [
                    65.9306,
                    36.2154
                ]
            },
            "properties": {
                "location_id": "29",
                "name": "Sar-e-Pol",
                "province": "Sar-e-Pol",
                "color": "#f26168",
                "layer": "capital",
                "layer_order": 3,
                "marker_type": "star",
                "marker_size": 16,
                "opacity": 0.9,
                "is_national_capital": false
            }
        },
        {
            "type": "Feature",
            "id": "capital_30",
            "geometry": {
                "type": "Point",
                "coordinates": [
                    69.54,
                    36.737
                ]
            },
            "properties": {
                "location_id": "30",
                "name": "Taloqan",
                "province": "Takhar",
                "color": "#f26168",
                "layer": "capital",
                "layer_order": 3,
                "marker_type": "star",
                "marker_size": 16,
                "opacity": 0.9,
                "is_national_capital": false
            }
        },
        {
            "type": "Feature",
            "id": "capital_31",
            "geometry": {
                "type": "Point",
                "coordinates": [
                    65.8667,
                    32.6333
                ]
            },
            "properties": {
                "location_id": "31",
                "name": "Tarin Kowt",
                "province": "Uruzgan",
                "color": "#f26168",
                "layer": "capital",
                "layer_order": 3,
                "marker_type": "star",
                "marker_size": 16,
                "opacity": 0.9,
                "is_national_capital": false
            }
        },
        {
            "type": "Feature",
            "id": "capital_32",
            "geometry": {
                "type": "Point",
                "coordinates": [
                    68.8669,
                    34.3956
                ]
            },
            "properties": {
                "location_id": "32",
                "name": "Maidan Shahr",
                "province": "Wardak (Maidan Wardak)",
                "color": "#f26168",
                "layer": "capital",
                "layer_order": 3,
                "marker_type": "star",
                "marker_size": 16,
                "opacity": 0.9,
                "is_national_capital": false
            }
        },
        {
            "type": "Feature",
            "id": "capital_33",
            "geometry": {
                "type": "Point",
                "coordinates": [
                    66.906,
                    32.11
                ]
            },
            "properties": {
                "location_id": "33",
                "name": "Qalat",
                "province": "Zabul",
                "color": "#f26168",
                "layer": "capital",
                "layer_order": 3,
                "marker_type": "star",
                "marker_size": 16,
                "opacity": 0.9,
                "is_national_capital": false
            }
        }
    ]
}